NORAD_CAT_ID,OBJECT_NAME,OBJECT_TYPE,EPOCH,MEAN_MOTION,ECCENTRICITY,INCLINATION,RA_OF_ASC_NODE,ARG_OF_PERICENTER,MEAN_ANOMALY,BSTAR,MEAN_MOTION_DOT,MEAN_MOTION_DDOT,TLE_LINE0,TLE_LINE1,TLE_LINE2,SEMIMAJOR_AXIS,PERIOD,APOGEE,PERIGEE,DECAYED
53867.0,STARLINK-4793,PAYLOAD,2023-01-08 22:00:00,15.54473306,0.0001509,53.217,65.6414,39.101,47.7845,-0.018851,-0.01138816,0.0,0 STARLINK-4793,1 53867U 22114BB  23008.91667824 -.01138816  00000-0 -18851-1 0  9999,2 53867  53.2170  65.6414 0001509  39.1010  47.7845 15.54473306  1301,6781.821,92.636,404.709,402.663,0.0
53867.0,STARLINK-4793,PAYLOAD,2023-01-09 08:00:01,15.53448041,0.0001526,53.2173,63.6377,44.6104,214.5923,-0.019354,-0.01127198,0.0,0 STARLINK-4793,1 53867U 22114BB  23009.33335648 -.01127198  00000-0 -19354-1 0  9992,2 53867  53.2173  63.6377 0001526  44.6104 214.5923 15.53448041 18243,6784.805,92.697,407.705,405.634,0.0
53867.0,STARLINK-4793,PAYLOAD,2023-01-09 14:00:01,15.52837852,0.0001501,53.217,62.4387,54.7441,163.0083,-0.01977,-0.0112615,0.0,0 STARLINK-4793,1 53867U 22114BB  23009.58334491 -.01126150  00000-0 -19770-1 0  9993,2 53867  53.2170  62.4387 0001501  54.7441 163.0083 15.52837852  1302,6786.581999999999,92.733,409.466,407.42800000000005,0.0
53867.0,STARLINK-4793,PAYLOAD,2023-01-10 00:00:00,15.5182103,0.0001242,53.2175,60.437,48.6126,338.9462,-0.020547,-0.01127737,0.0,0 STARLINK-4793,1 53867U 22114BB  23010.00001157 -.01127737  00000-0 -20547-1 0  9998,2 53867  53.2175  60.4370 0001242  48.6126 338.9462 15.51821030  1305,6789.545999999999,92.794,412.255,410.568,0.0
53867.0,STARLINK-4793,PAYLOAD,2023-01-10 10:00:00,15.50804449,0.000166,53.2175,58.4428,45.9743,149.8594,-0.021317,-0.01128035,0.0,0 STARLINK-4793,1 53867U 22114BB  23010.41667824 -.01128035  00000-0 -21317-1 0  9990,2 53867  53.2175  58.4428 0001660  45.9743 149.8594 15.50804449 18414,6792.513000000001,92.855,415.506,413.251,0.0
53867.0,STARLINK-4793,PAYLOAD,2023-01-10 14:00:01,15.50395697,0.0001598,53.2174,57.6461,35.9965,10.7203,-0.021565,-0.01124878,0.0,0 STARLINK-4793,1 53867U 22114BB  23010.58334491 -.01124878  00000-0 -21565-1 0  9995,2 53867  53.2174  57.6461 0001598  35.9965  10.7203 15.50395697  1309,6793.706999999999,92.88,416.658,414.486,0.0
53867.0,STARLINK-4793,PAYLOAD,2023-01-10 22:00:00,15.49602163,0.0001678,53.2172,56.0515,37.5709,70.1694,-0.022789,-0.01169867,0.0,0 STARLINK-4793,1 53867U 22114BB  23010.91667824 -.01169867  00000-0 -22789-1 0  9997,2 53867  53.2172  56.0515 0001678  37.5709  70.1694 15.49602163  1304,6796.026,92.927,419.031,416.751,0.0
53867.0,STARLINK-4793,PAYLOAD,2023-01-11 08:00:01,15.48566806,0.0001402,53.2173,54.0627,52.1196,220.5434,-0.023057,-0.01143353,0.0,0 STARLINK-4793,1 53867U 22114BB  23011.33334491 -.01143353  00000-0 -23057-1 0  9996,2 53867  53.2173  54.0627 0001402  52.1196 220.5434 15.48566806 18555,6799.055,92.989,421.8730000000001,419.967,0.0
53867.0,STARLINK-4793,PAYLOAD,2023-01-11 14:00:01,15.4795375,0.0001481,53.2172,52.872,48.6768,178.2022,-0.023454,-0.01138669,0.0,0 STARLINK-4793,1 53867U 22114BB  23011.58334491 -.01138669  00000-0 -23454-1 0  9998,2 53867  53.2172  52.8720 0001481  48.6768 178.2022 15.47953750  1300,6800.85,93.026,423.722,421.708,0.0
53867.0,STARLINK-4793,PAYLOAD,2023-01-11 22:00:00,15.47141181,0.0001314,53.2174,51.2826,51.8853,233.0932,-0.024191,-0.01141231,0.0,0 STARLINK-4793,1 53867U 22114BB  23011.91667824 -.01141231  00000-0 -24191-1 0  9992,2 53867  53.2174  51.2826 0001314  51.8853 233.0932 15.47141181  1305,6803.231,93.075,425.99,424.202,0.0
53867.0,STARLINK-4793,PAYLOAD,2023-01-12 08:00:01,15.4612666,0.0001655,53.2172,49.3014,41.0169,45.2079,-0.025147,-0.01144962,0.0,0 STARLINK-4793,1 53867U 22114BB  23012.33334491 -.01144962  00000-0 -25147-1 0  9996,2 53867  53.2172  49.3014 0001655  41.0169  45.2079 15.46126660 18711,6806.206999999999,93.136,429.198,426.945,0.0
53867.0,STARLINK-4793,PAYLOAD,2023-01-12 22:00:00,15.44675494,0.0001243,53.2136,46.5356,87.20100000000002,6.2517,-0.025385,-0.01103002,0.0,0 STARLINK-4793,1 53867U 22114BB  23012.91667824 -.01103002  00000-0 -25385-1 0  9993,2 53867  53.2136  46.5356 0001243  87.2010   6.2517 15.44675494  1302,6810.469,93.223,433.18,431.487,0.0
53867.0,STARLINK-4793,PAYLOAD,2023-01-13 06:00:00,15.43898955,0.0001389,53.2149,44.9551,85.7565,61.8735,-0.027822,-0.01170827,0.0,0 STARLINK-4793,1 53867U 22114BB  23013.25001157 -.01170827  00000-0 -27822-1 0  9999,2 53867  53.2149  44.9551 0001389  85.7565  61.8735 15.43898955 18859,6812.752,93.27,435.5630000000001,433.671,0.0
53867.0,STARLINK-4793,PAYLOAD,2023-01-13 14:00:01,15.43076034,0.0001416,53.2137,43.3798,80.605,120.2271,-0.027763,-0.01139024,0.0,0 STARLINK-4793,1 53867U 22114BB  23013.58334491 -.01139024  00000-0 -27763-1 0  9993,2 53867  53.2137  43.3798 0001416  80.6050 120.2271 15.43076034  1309,6815.174,93.32,438.004,436.074,0.0
53867.0,STARLINK-4793,PAYLOAD,2023-01-13 22:00:00,15.42233196,0.0001333,53.214,41.8019,92.1949,160.8827,-0.027535,-0.01101262,0.0,0 STARLINK-4793,1 53867U 22114BB  23013.91667824 -.01101262  00000-0 -27535-1 0  9999,2 53867  53.2140  41.8019 0001333  92.1949 160.8827 15.42233196  1305,6817.656999999999,93.371,440.431,438.61300000000006,0.0
53867.0,STARLINK-4793,PAYLOAD,2023-01-14 08:00:01,15.41237481,0.0001298,53.2141,39.8363,76.9682,330.0157,-0.029561,-0.01139811,0.0,0 STARLINK-4793,1 53867U 22114BB  23014.33334491 -.01139811  00000-0 -29561-1 0  9999,2 53867  53.2141  39.8363 0001298  76.9682 330.0157 15.41237481 19024,6820.593000000001,93.431,443.343,441.573,0.0
53867.0,STARLINK-4793,PAYLOAD,2023-01-15 06:00:00,15.39011263,0.0001335,53.2138,35.5191,89.5014,2.713,-0.032458,-0.01160301,0.0,0 STARLINK-4793,1 53867U 22114BB  23015.25001157 -.01160301  00000-0 -32458-1 0  9998,2 53867  53.2138  35.5191 0001335  89.5014   2.7130 15.39011263 19167,6827.169,93.567,449.945,448.122,0.0
53867.0,STARLINK-4793,PAYLOAD,2023-01-15 14:00:01,15.38204145,0.0001369,53.2134,33.9533,83.9534,55.5971,-0.033286,-0.01158857,0.0,0 STARLINK-4793,1 53867U 22114BB  23015.58334491 -.01158857  00000-0 -33286-1 0  9997,2 53867  53.2134  33.9533 0001369  83.9534  55.5971 15.38204145  1305,6829.557,93.616,452.357,450.487,0.0
53867.0,STARLINK-4793,PAYLOAD,2023-01-15 22:00:01,15.37360358,0.0001385,53.2133,32.3874,100.16,85.8303,-0.032737,-0.01112892,0.0,0 STARLINK-4793,1 53867U 22114BB  23015.91668981 -.01112892  00000-0 -32737-1 0  9997,2 53867  53.2133  32.3874 0001385 100.1600  85.8303 15.37360358  1302,6832.056,93.667,454.867,452.974,0.0
53867.0,STARLINK-4793,PAYLOAD,2023-01-16 08:00:01,15.36349037,0.0001269,53.2133,30.4367,95.9469,236.5579,-0.034341,-0.01128198,0.0,0 STARLINK-4793,1 53867U 22114BB  23016.33334491 -.01128198  00000-0 -34341-1 0  9999,2 53867  53.2133  30.4367 0001269  95.9469 236.5579 15.36349037 19324,6835.053000000001,93.729,457.786,456.051,0.0
53867.0,STARLINK-4793,PAYLOAD,2023-01-16 14:00:01,15.35773722,0.0001294,53.2127,29.2665,95.7242,179.9814,-0.036619,-0.01176187,0.0,0 STARLINK-4793,1 53867U 22114BB  23016.58334491 -.01176187  00000-0 -36619-1 0  9997,2 53867  53.2127  29.2665 0001294  95.7242 179.9814 15.35773722  1301,6836.76,93.764,459.51,457.741,0.0
53867.0,STARLINK-4793,PAYLOAD,2023-01-16 16:00:00,15.35567381,0.0001182,53.2129,28.8761,94.6251,282.0341,-0.036973,-0.01179335,0.0,0 STARLINK-4793,1 53867U 22114BB  23016.66667824 -.01179335  00000-0 -36973-1 0  9996,2 53867  53.2129  28.8761 0001182  94.6251 282.0341 15.35567381 19389,6837.3730000000005,93.776,460.046,458.43,0.0
53867.0,STARLINK-4793,PAYLOAD,2023-01-17 14:00:01,15.33332056,0.0001161,53.2125,24.5967,88.7897,314.274,-0.039617,-0.01176615,0.0,0 STARLINK-4793,1 53867U 22114BB  23017.58334491 -.01176615  00000-0 -39617-1 0  9995,2 53867  53.2125  24.5967 0001161  88.7897 314.2740 15.33332056  1304,6844.016,93.913,466.676,465.087,0.0
53867.0,STARLINK-4793,PAYLOAD,2023-01-17 16:00:00,15.33123526,0.0001311,53.2126,24.2077,93.3707,49.9137,-0.039829,-0.01175269,0.0,0 STARLINK-4793,1 53867U 22114BB  23017.66667824 -.01175269  00000-0 -39829-1 0  9992,2 53867  53.2126  24.2077 0001311  93.3707  49.9137 15.33123526 19539,6844.637,93.926,467.399,465.604,0.0
53867.0,STARLINK-4793,PAYLOAD,2023-01-17 22:00:00,15.32478903,0.0001217,53.2127,23.0423,98.1807,345.3954,-0.038289,-0.01112731,0.0,0 STARLINK-4793,1 53867U 22114BB  23017.91667824 -.01112731  00000-0 -38289-1 0  9994,2 53867  53.2127  23.0423 0001217  98.1807 345.3954 15.32478903  1308,6846.556,93.965,469.254,467.588,0.0
53867.0,STARLINK-4793,PAYLOAD,2023-01-18 14:00:01,15.30891779,0.0001339,53.2126,19.944000000000003,78.6578,82.9659,-0.042927,-0.01180125,0.0,0 STARLINK-4793,1 53867U 22114BB  23018.58334491 -.01180125  00000-0 -42927-1 0  9995,2 53867  53.2126  19.9440 0001339  78.6578  82.9659 15.30891779  1307,6851.286999999999,94.063,474.07,472.235,0.0
53867.0,STARLINK-4793,PAYLOAD,2023-01-18 18:00:00,15.30444602,0.0001094999999999,53.2128,19.1692,88.689,271.8553,-0.041154,-0.01121134,0.0,0 STARLINK-4793,1 53867U 22114BB  23018.75001157 -.01121134  00000-0 -41154-1 0  9990,2 53867  53.2128  19.1692 0001095  88.6890 271.8553 15.30444602 19701,6852.621999999999,94.09,475.237,473.736,0.0
53867.0,STARLINK-4793,PAYLOAD,2023-01-18 22:00:00,15.30043205,0.0001355,53.2126,18.3953,93.4207,105.7768,-0.041566,-0.01118576,0.0,0 STARLINK-4793,1 53867U 22114BB  23018.91667824 -.01118576  00000-0 -41566-1 0  9990,2 53867  53.2126  18.3953 0001355  93.4207 105.7768 15.30043205  1309,6853.82,94.115,476.614,474.757,0.0
53867.0,STARLINK-4793,PAYLOAD,2023-01-19 14:00:01,15.28453015,0.0001258,53.2127,15.3084,86.8526,184.5277,-0.04654,-0.01201889,0.0,0 STARLINK-4793,1 53867U 22114BB  23019.58334491 -.01201889  00000-0 -46540-1 0  9992,2 53867  53.2127  15.3084 0001258  86.8526 184.5277 15.28453015 19821,6858.573,94.213,481.301,479.575,0.0
